#cP2022  3 22  6  0  0.00000000     576 d+D   IGb14 EXT AIUB
## 2202 194400.00000000   300.00000000 59660 0.2500000000000
+   76   G01G02G03G04G05G06G07G08G09G10G11G12G13G14G15G16G17
+        G18G19G20G21G22G23G24G25G26G27G28G29G30G31G32R01R02
+        R03R04R05R07R08R09R12R13R14R15R17R18R19R20R21R22R24
+        E01E02E03E04E05E07E08E10E11E12E13E14E15E18E19E21E24
+        E25E26E27E30E31E33E34E36  0  0  0  0  0  0  0  0  0
++         5  7  6  8  7  6  6  5  5  6  8  7  7  7  7  7  7
++         8  6  7  7  8  6  6  6  7  6  7  7  6  7  6  8  6
++         7  7  7  7  7  7  7  8  7  7  8  7  8  9  8  8  8
++         6  6  5  5  6  6  5  6  7  6  6  7  7  7  6  5  8
++         6  6  5  6  6  6  7  7  0  0  0  0  0  0  0  0  0
%c M  cc GPS ccc cccc cccc cccc cccc ccccc ccccc ccccc ccccc
%c cc cc ccc ccc cccc cccc cccc cccc ccccc ccccc ccccc ccccc
%f  1.2500000  1.025000000  0.00000000000  0.000000000000000
%f  0.0000000  0.000000000  0.00000000000  0.000000000000000
%i    0    0    0    0      0      0      0      0         0
%i    0    0    0    0      0      0      0      0         0
/* Center for Orbit Determination in Europe (CODE)          
/* Ultra-rapid GRE orbits starting year-day 22081 06 hour   
/* Observed/predicted: 25/23 hours (data used up to 082G)   
/* PCV:IGS14      OL/AL:FES2014b NONE     YN ORB:CoN CLK:BRD
*  2022  3 23 13 35  0.00000000
PG01 -15830.624338 -13402.891013 -17077.879345    402.087499               P   P
PG02  -7325.867389  14661.866330  21584.840088   -652.559903               P   P
PG03 -13110.950067 -22720.153121   4430.090376   -176.101290               P   P
PG04  -6860.787125 -14826.614411  20931.903684   -181.574480               P   P
PG05   3519.234663  24047.315433  10372.134046    -75.695983               P   P
PG06 -22095.267977   6302.761444  13461.223534    241.109834               P   P
PG07 -25901.170878  -6006.669637   3976.487071    317.406150               P   P
PG08   1555.693843 -21122.911342 -15836.218035    -60.970333               P   P
PG09 -15468.227369  -4106.759428  21133.491182   -348.164590               P   P
PG10  15191.856215  -1962.790940 -21582.326161   -355.726780               P   P
PG11  -8535.505974  13514.003721  21207.951651    -57.130730               P   P
PG12   9509.430772  24834.998528   1123.123671   -189.236024               P   P
PG13 -10808.534403  21695.585171 -10815.491623    281.686338               P   P
PG14 -15879.358450    867.262675 -21287.849122    -96.527029               P   P
PG15   1935.291135  21135.285575 -16184.127853    -74.584694               P   P
PG16   2375.126768 -22361.344565  13484.752476   -483.892190               P   P
PG17 -20383.194074  11118.895899 -12515.185842    590.985560               P   P
PG18  25691.130529   5963.931661   3575.666834    213.165455               P   P
PG19 -20441.648947  15547.898293  -6626.654794    134.786553               P   P
PG20  -2733.803216  19739.779928  17677.897065    516.176267               P   P
PG21  -5721.318684 -14758.068377 -20767.606515    159.714663               P   P
PG22  18862.243025 -18237.592048  -3017.132717    231.941777               P   P
PG23  17690.504830   9691.323332 -17338.736851     -9.190522               P   P
PG24  12169.493519  14537.329591 -19051.800439    265.232825               P   P
PG25  16697.823788  16664.437189  12187.458950    302.208971               P   P
PG26   9891.312639 -13658.620544  20368.459700    193.050405               P   P
PG27  11336.932240 -22891.652709  -6667.208563    163.076696               P   P
PG28 -11832.380355  10236.350595 -20982.971465    374.799258               P   P
PG29  13589.822330   6576.547493  21808.810693   -494.701034               P   P
PG30 -26246.503785     35.073791  -4797.212413   -520.201131               P   P
PG31  20804.136182  -7671.892604  14831.011423   -170.207400               P   P
PG32  19581.913978 -14306.615338 -10465.723004    -90.443472               P   P
PR01   6305.600063  16418.857945 -18462.954608      7.332725               P   P
PR02  11517.827003  -4103.549247 -22330.046916    513.362356               P   P
PR03   9577.654621 -20354.664697 -11924.327946     53.627048               P   P
PR04   2419.168367 -24905.173359   4963.920859    133.246285               P   P
PR05  -6047.388049 -15754.397320  19134.846969     89.881086               P   P
PR07  -9434.913635  20829.645696  11396.046658     32.988465               P   P
PR08  -2333.181528  24921.377443  -4921.871950    -64.165757               P   P
PR09 -19315.583044  -5914.275766 -15608.383260     45.878043               P   P
PR12  19180.798655  16808.671054   -896.990225     17.545958               P   P
PR13  19552.434634   6996.235760  14794.986383    -19.833073               P   P
PR14   7888.869393  -7884.537976  22945.891604     75.695669               P   P
PR15  -7780.077095 -17340.977854  17025.763310     97.350989               P   P
PR17  19911.245689 -11967.300211 -10562.896808    511.832598               P   P
PR18   5213.468706 -12087.167412 -21821.824545    111.211958               P   P
PR19 -10982.633098  -6806.634533 -21994.183051   -182.626789               P   P
PR20 -24058.180490   3860.210569  -7624.381393    -67.260914               P   P
PR21 -19008.698267  12130.649343  11906.270072   -287.572455               P   P
PR22  -4525.428784  11881.117767  22120.030130   -172.375572               P   P
PR24  24119.022267  -4621.427077   6925.796370     85.701334               P   P
PE01  13797.695235  26120.678191  -1974.339420   -602.309413               P   P
PE02 -13896.723537 -26059.197723   1804.005868    288.116673               P   P
PE03  -4714.316885 -20969.108913  20358.830706   -540.359003               P   P
PE04  17497.993200   2957.105589 -23681.145307   -990.731360               P   P
PE05  11086.241414 -26987.981546   4997.415798   -197.689443               P   P
PE07 -20223.914005  17214.804704  13070.687960   -651.208546               P   P
PE08 -17545.654273  -2447.871617  23715.905355   -499.970679               P   P
PE10  29530.197903  -1521.214967  -1316.200909   -502.211603               P   P
PE11  26212.564395  -7816.600647 -11291.923190   4155.970409               P   P
PE12  27975.986222   4887.036529   8299.398324   4699.289861               P   P
PE13 -26583.583448   7460.402607  10693.386337    427.497719               P   P
PE14 -19483.354458  -6253.929598 -22858.283047  -1788.300253               P   P
PE15 -27953.164641  -4868.338207  -8447.418901    756.080281               P   P
PE18  21784.876866  -9334.343384  12434.063893  -1650.491480               P   P
PE19   2595.499101  22487.624333 -19065.390852  -1793.901661               P   P
PE21   -187.736872  23584.348293 -17898.118937   -724.199894               P   P
PE24  15727.688924  -6028.370089  24324.763413   -521.034989               P   P
PE25    410.570405 -23436.531035  18069.811334   -567.805444               P   P
PE26  -8548.068621  15637.199535  23640.519225   -945.577721               P   P
PE27 -14944.881783   7405.323700 -24455.668032   -259.644223               P   P
PE30 -20731.507720 -14014.645344 -15808.746264   -371.709718               P   P
PE31  20797.205859  13014.475759  16569.515617   -493.951825               P   P
PE33  12811.092132  14284.170565  22539.649364   -458.297890               P   P
PE34 -13070.615206 -14200.558652 -22446.685778   -508.247548               P   P
PE36   9596.678188 -15326.270374 -23426.966238   -349.355046               P   P
EOF
